[
  {
    "OBJECT_NAME": "CONTECSAT-1",
    "OBJECT_ID": "2024-043V",
    "EPOCH": "2026-07-23T13:11:39.888672",
    "MEAN_MOTION": 15.37231847,
    "ECCENTRICITY": 0.0011552,
    "INCLINATION": 97.5683,
    "RA_OF_ASC_NODE": 346.6185,
    "ARG_OF_PERICENTER": 105.4419,
    "MEAN_ANOMALY": 254.8102,
    "EPHEMERIS_TYPE": 0,
    "CLASSIFICATION_TYPE": "U",
    "NORAD_CAT_ID": 59117,
    "ELEMENT_SET_NO": 999,
    "REV_AT_EPOCH": 13283,
    "BSTAR": 0.00030176,
    "MEAN_MOTION_DOT": 0.00010945,
    "MEAN_MOTION_DDOT": 0
  }
]
