CONTECSAT-1             
1 59117U 24043V   26204.54976723  .00010945  00000+0  30176-3 0  9991
2 59117  97.5683 346.6185 0011552 105.4419 254.8102 15.37231847132834
